[
    {
        "Altitude(m)": 617710.6705880165,
        "Argument of Periapsis(deg)": 0.0,
        "Eccentricity": 0.0,
        "Inclination(deg)": 60.0,
        "Latitude(deg)": -41.10274386779655,
        "Longitude(deg)": -0.03324861709350464,
        "Mean Anomaly(deg)": -49.09089999999994,
        "RAAN(deg)": 130.0,
        "Satellite Name": "Test1 591",
        "Satellite Number": 591,
        "Semi-Major Axis(m)": 6980739.136638005,
        "Time(s)": 0
    },
    {
        "Altitude(m)": 617517.9685586479,
        "Argument of Periapsis(deg)": 0.00010418945913296404,
        "Eccentricity": 0.0,
        "Inclination(deg)": 60.0,
        "Latitude(deg)": -40.636949612663855,
        "Longitude(deg)": 0.46354362643414065,
        "Mean Anomaly(deg)": -48.470793854538094,
        "RAAN(deg)": 129.99957995086024,
        "Satellite Name": "Test1 591",
        "Satellite Number": 591,
        "Semi-Major Axis(m)": 6980739.136638005,
        "Time(s)": 10
    },
    {
        "Altitude(m)": 617324.2894252812,
        "Argument of Periapsis(deg)": 0.0002083789182659281,
        "Eccentricity": 0.0,
        "Inclination(deg)": 60.0,
        "Latitude(deg)": -40.16863004808515,
        "Longitude(deg)": 0.9529079990400606,
        "Mean Anomaly(deg)": -47.85068770907631,
        "RAAN(deg)": 129.9991599017205,
        "Satellite Name": "Test1 591",
        "Satellite Number": 591,
        "Semi-Major Axis(m)": 6980739.136638005,
        "Time(s)": 20
    },
    {
        "Altitude(m)": 617129.7071689143,
        "Argument of Periapsis(deg)": 0.00031256837739889213,
        "Eccentricity": 0.0,
        "Inclination(deg)": 60.0,
        "Latitude(deg)": -39.69785830576658,
        "Longitude(deg)": 1.4350289557113358,
        "Mean Anomaly(deg)": -47.230581563614464,
        "RAAN(deg)": 129.99873985258077,
        "Satellite Name": "Test1 591",
        "Satellite Number": 591,
        "Semi-Major Axis(m)": 6980739.136638005,
        "Time(s)": 30
    },
    {
        "Altitude(m)": 616934.2960192702,
        "Argument of Periapsis(deg)": 0.0004167578365318562,
        "Eccentricity": 0.0,
        "Inclination(deg)": 60.0,
        "Latitude(deg)": -39.224705294739216,
        "Longitude(deg)": 1.9100879731633613,
        "Mean Anomaly(deg)": -46.61047541815263,
        "RAAN(deg)": 129.99831980344103,
        "Satellite Name": "Test1 591",
        "Satellite Number": 591,
        "Semi-Major Axis(m)": 6980739.136638005,
        "Time(s)": 40
    },
    {
        "Altitude(m)": 616738.1304223356,
        "Argument of Periapsis(deg)": 0.0005209472956648203,
        "Eccentricity": 0.0,
        "Inclination(deg)": 60.0,
        "Latitude(deg)": -38.7492397737572,
        "Longitude(deg)": 2.378262526647818,
        "Mean Anomaly(deg)": -45.990369272690785,
        "RAAN(deg)": 129.99789975430127,
        "Satellite Name": "Test1 591",
        "Satellite Number": 591,
        "Semi-Major Axis(m)": 6980739.136638005,
        "Time(s)": 50
    },
    {
        "Altitude(m)": 616541.2850077599,
        "Argument of Periapsis(deg)": 0.0006251367547977843,
        "Eccentricity": 0.0,
        "Inclination(deg)": 60.0,
        "Latitude(deg)": -38.271528422209194,
        "Longitude(deg)": 2.839726590516273,
        "Mean Anomaly(deg)": -45.37026312722895,
        "RAAN(deg)": 129.99747970516154,
        "Satellite Name": "Test1 591",
        "Satellite Number": 591,
        "Semi-Major Axis(m)": 6980739.136638005,
        "Time(s)": 60
    },
    {
        "Altitude(m)": 616343.83455619,
        "Argument of Periapsis(deg)": 0.0007293262139307483,
        "Eccentricity": 0.0,
        "Inclination(deg)": 60.0,
        "Latitude(deg)": -37.7916359094747,
        "Longitude(deg)": 3.294651148538496,
        "Mean Anomaly(deg)": -44.7501569817671,
        "RAAN(deg)": 129.9970596560218,
        "Satellite Name": "Test1 591",
        "Satellite Number": 591,
        "Semi-Major Axis(m)": 6980739.136638005,
        "Time(s)": 70
    },
    {
        "Altitude(m)": 616145.853966473,
        "Argument of Periapsis(deg)": 0.0008335156730637124,
        "Eccentricity": 0.0,
        "Inclination(deg)": 60.0,
        "Latitude(deg)": -37.3096249626743,
        "Longitude(deg)": 3.7432032000621303,
        "Mean Anomaly(deg)": -44.13005083630533,
        "RAAN(deg)": 129.99663960688207,
        "Satellite Name": "Test1 591",
        "Satellite Number": 591,
        "Semi-Major Axis(m)": 6980739.136638005,
        "Time(s)": 80
    },
    {
        "Altitude(m)": 615947.4182228026,
        "Argument of Periapsis(deg)": 0.0009377051321966765,
        "Eccentricity": 0.0,
        "Inclination(deg)": 60.0,
        "Latitude(deg)": -36.82555643276443,
        "Longitude(deg)": 4.185546286801801,
        "Mean Anomaly(deg)": -43.50994469084347,
        "RAAN(deg)": 129.9962195577423,
        "Satellite Name": "Test1 591",
        "Satellite Number": 591,
        "Semi-Major Axis(m)": 6980739.136638005,
        "Time(s)": 90
    },
    {
        "Altitude(m)": 615748.6023618227,
        "Argument of Periapsis(deg)": 0.0010418945913296407,
        "Eccentricity": 0.0,
        "Inclination(deg)": 60.0,
        "Latitude(deg)": -36.33948935895164,
        "Longitude(deg)": 4.621841026505714,
        "Mean Anomaly(deg)": -42.88983854538159,
        "RAAN(deg)": 129.9957995086026,
        "Satellite Name": "Test1 591",
        "Satellite Number": 591,
        "Semi-Major Axis(m)": 6980739.136638005,
        "Time(s)": 100
    },
    {
        "Altitude(m)": 615549.481439658,
        "Argument of Periapsis(deg)": 0.0011460840504626045,
        "Eccentricity": 0.0,
        "Inclination(deg)": 60.0,
        "Latitude(deg)": -35.85148103140802,
        "Longitude(deg)": 5.052244139817254,
        "Mean Anomaly(deg)": -42.26973239991984,
        "RAAN(deg)": 129.99537945946284,
        "Satellite Name": "Test1 591",
        "Satellite Number": 591,
        "Semi-Major Axis(m)": 6980739.136638005,
        "Time(s)": 110
    },
    {
        "Altitude(m)": 615350.13049893,
        "Argument of Periapsis(deg)": 0.0012502735095955685,
        "Eccentricity": 0.0,
        "Inclination(deg)": 60.0,
        "Latitude(deg)": -35.36158705227182,
        "Longitude(deg)": 5.476908995341653,
        "Mean Anomaly(deg)": -41.649626254457964,
        "RAAN(deg)": 129.9949594103231,
        "Satellite Name": "Test1 591",
        "Satellite Number": 591,
        "Semi-Major Axis(m)": 6980739.136638005,
        "Time(s)": 120
    },
    {
        "Altitude(m)": 615150.6245357491,
        "Argument of Periapsis(deg)": 0.0013544629687285324,
        "Eccentricity": 0.0,
        "Inclination(deg)": 60.0,
        "Latitude(deg)": -34.869861394935754,
        "Longitude(deg)": 5.895986159365194,
        "Mean Anomaly(deg)": -41.02952010899616,
        "RAAN(deg)": 129.99453936118334,
        "Satellite Name": "Test1 591",
        "Satellite Number": 591,
        "Semi-Major Axis(m)": 6980739.136638005,
        "Time(s)": 130
    },
    {
        "Altitude(m)": 614951.038466732,
        "Argument of Periapsis(deg)": 0.0014586524278614966,
        "Eccentricity": 0.0,
        "Inclination(deg)": 60.0,
        "Latitude(deg)": -34.37635646162783,
        "Longitude(deg)": 6.309622436741688,
        "Mean Anomaly(deg)": -40.409413963534334,
        "RAAN(deg)": 129.99411931204364,
        "Satellite Name": "Test1 591",
        "Satellite Number": 591,
        "Semi-Major Axis(m)": 6980739.136638005,
        "Time(s)": 140
    },
    {
        "Altitude(m)": 614751.4470959855,
        "Argument of Periapsis(deg)": 0.0015628418869944607,
        "Eccentricity": 0.0,
        "Inclination(deg)": 60.0,
        "Latitude(deg)": -33.88112313929294,
        "Longitude(deg)": 6.717961428127866,
        "Mean Anomaly(deg)": -39.78930781807248,
        "RAAN(deg)": 129.99369926290387,
        "Satellite Name": "Test1 591",
        "Satellite Number": 591,
        "Semi-Major Axis(m)": 6980739.136638005,
        "Time(s)": 150
    },
    {
        "Altitude(m)": 614551.9250821786,
        "Argument of Periapsis(deg)": 0.0016670313461274247,
        "Eccentricity": 0.0,
        "Inclination(deg)": 60.0,
        "Latitude(deg)": -33.38421085379248,
        "Longitude(deg)": 7.12114409018662,
        "Mean Anomaly(deg)": -39.169201672610654,
        "RAAN(deg)": 129.99327921376414,
        "Satellite Name": "Test1 591",
        "Satellite Number": 591,
        "Semi-Major Axis(m)": 6980739.136638005,
        "Time(s)": 160
    },
    {
        "Altitude(m)": 614352.5469056286,
        "Argument of Periapsis(deg)": 0.0017712208052603888,
        "Eccentricity": 0.0,
        "Inclination(deg)": 60.0,
        "Latitude(deg)": -32.885667622446846,
        "Longitude(deg)": 7.519307785420966,
        "Mean Anomaly(deg)": -38.54909552714885,
        "RAAN(deg)": 129.99285916462438,
        "Satellite Name": "Test1 591",
        "Satellite Number": 591,
        "Semi-Major Axis(m)": 6980739.136638005,
        "Time(s)": 170
    },
    {
        "Altitude(m)": 614153.3868354512,
        "Argument of Periapsis(deg)": 0.001875410264393353,
        "Eccentricity": 0.0,
        "Inclination(deg)": 60.0,
        "Latitude(deg)": -32.38554010493968,
        "Longitude(deg)": 7.912586846966634,
        "Mean Anomaly(deg)": -37.92898938168697,
        "RAAN(deg)": 129.99243911548467,
        "Satellite Name": "Test1 591",
        "Satellite Number": 591,
        "Semi-Major Axis(m)": 6980739.136638005,
        "Time(s)": 180
    },
    {
        "Altitude(m)": 613954.5188967962,
        "Argument of Periapsis(deg)": 0.0019795997235263173,
        "Eccentricity": 0.0,
        "Inclination(deg)": 60.0,
        "Latitude(deg)": -31.88387365261561,
        "Longitude(deg)": 8.301113145091213,
        "Mean Anomaly(deg)": -37.30888323622522,
        "RAAN(deg)": 129.99201906634488,
        "Satellite Name": "Test1 591",
        "Satellite Number": 591,
        "Semi-Major Axis(m)": 6980739.136638005,
        "Time(s)": 190
    }
]